[{"OBJECT_NAME":"STARLINK-2111","OBJECT_ID":"2021-005AT","EPOCH":"2026-03-09T23:31:12.860544","MEAN_MOTION":15.06396453,"ECCENTRICITY":0.00014407,"INCLINATION":53.0553,"RA_OF_ASC_NODE":60.3162,"ARG_OF_PERICENTER":82.8357,"MEAN_ANOMALY":277.2796,"EPHEMERIS_TYPE":0,"CLASSIFICATION_TYPE":"U","NORAD_CAT_ID":47390,"ELEMENT_SET_NO":999,"REV_AT_EPOCH":28308,"BSTAR":1.611052e-5,"MEAN_MOTION_DOT":-4.2e-7,"MEAN_MOTION_DDOT":0},{"OBJECT_NAME":"JILIN-01 KUANFU 02B 3","OBJECT_ID":"2024-169C","EPOCH":"2026-03-09T22:06:48.862368","MEAN_MOTION":15.0924242,"ECCENTRICITY":0.00160506,"INCLINATION":97.5557,"RA_OF_ASC_NODE":159.7436,"ARG_OF_PERICENTER":304.8201,"MEAN_ANOMALY":55.1517,"EPHEMERIS_TYPE":0,"CLASSIFICATION_TYPE":"U","NORAD_CAT_ID":61191,"ELEMENT_SET_NO":999,"REV_AT_EPOCH":8085,"BSTAR":0.00039569069,"MEAN_MOTION_DOT":6.253e-5,"MEAN_MOTION_DDOT":0}]
